[{"OBJECT_NAME":"STARLINK-3350","OBJECT_ID":"2022-005B","EPOCH":"2026-03-09T21:53:58.799904","MEAN_MOTION":15.08834659,"ECCENTRICITY":0.00011869,"INCLINATION":53.217,"RA_OF_ASC_NODE":288.1219,"ARG_OF_PERICENTER":89.521,"MEAN_ANOMALY":270.5918,"EPHEMERIS_TYPE":0,"CLASSIFICATION_TYPE":"U","NORAD_CAT_ID":51105,"ELEMENT_SET_NO":999,"REV_AT_EPOCH":22891,"BSTAR":0.00017716274,"MEAN_MOTION_DOT":2.532e-5,"MEAN_MOTION_DDOT":0},{"OBJECT_NAME":"STARLINK-6085","OBJECT_ID":"2023-090Q","EPOCH":"2026-03-09T12:53:56.600160","MEAN_MOTION":15.13089153,"ECCENTRICITY":0.00193829,"INCLINATION":42.9983,"RA_OF_ASC_NODE":264.1938,"ARG_OF_PERICENTER":205.4773,"MEAN_ANOMALY":154.5119,"EPHEMERIS_TYPE":0,"CLASSIFICATION_TYPE":"U","NORAD_CAT_ID":57115,"ELEMENT_SET_NO":999,"REV_AT_EPOCH":15052,"BSTAR":0.0015301514,"MEAN_MOTION_DOT":0.00027564,"MEAN_MOTION_DDOT":0}]
